start=new Date('2021-10-27T00:00:00.000Z').valueOf();
sats=[{"BSTAR":"0.00003212500000","SEMIMAJOR_AXIS":"6925.327","TLE_LINE1":"1 48357U 21038E   21299.40876092  .00000197  00000-0  32125-4 0  9994","CENTER_NAME":"EARTH","OBJECT_TYPE":"PAYLOAD","COUNTRY_CODE":"US","DECAY_DATE":null,"ELEMENT_SET_NO":"999","APOAPSIS":"548.054","FILE":"3185033","INCLINATION":"53.0559","MEAN_MOTION_DDOT":"0.0000000000000","REV_AT_EPOCH":"2717","CLASSIFICATION_TYPE":"U","ECCENTRICITY":"0.00012440","EPOCH":"2021-10-26T09:48:36.943488","SITE":"AFETR","MEAN_ELEMENT_THEORY":"SGP4","OBJECT_NAME":"STARLINK-2636","TLE_LINE2":"2 48357  53.0559 323.1058 0001244  78.4450 281.6678 15.06406957 27175","RA_OF_ASC_NODE":"323.1058","MEAN_ANOMALY":"281.6678","EPHEMERIS_TYPE":"0","PERIAPSIS":"546.331","ARG_OF_PERICENTER":"78.4450","OBJECT_ID":"2021-038E","NORAD_CAT_ID":"48357","GP_ID":"188203065","TIME_SYSTEM":"UTC","RCS_SIZE":"LARGE","LAUNCH_DATE":"2021-05-04","MEAN_MOTION":"15.06406957","MEAN_MOTION_DOT":"0.00000197","PERIOD":"95.592","REF_FRAME":"TEME"},{"TIME_SYSTEM":"UTC","RCS_SIZE":"LARGE","LAUNCH_DATE":"2021-05-04","REF_FRAME":"TEME","PERIOD":"95.592","MEAN_MOTION":"15.06401320","MEAN_MOTION_DOT":"0.00001887","EPHEMERIS_TYPE":"0","PERIAPSIS":"546.278","GP_ID":"188199561","NORAD_CAT_ID":"48358","ARG_OF_PERICENTER":"71.0690","OBJECT_ID":"2021-038F","TLE_LINE2":"2 48358  53.0527 323.4297 0001345  71.0690 289.0445 15.06401320 26561","ECCENTRICITY":"0.00013450","CLASSIFICATION_TYPE":"U","EPOCH":"2021-10-26T08:07:46.233120","SITE":"AFETR","MEAN_ELEMENT_THEORY":"SGP4","OBJECT_NAME":"STARLINK-2624","RA_OF_ASC_NODE":"323.4297","MEAN_ANOMALY":"289.0445","CENTER_NAME":"EARTH","OBJECT_TYPE":"PAYLOAD","DECAY_DATE":null,"COUNTRY_CODE":"US","SEMIMAJOR_AXIS":"6925.345","BSTAR":"0.00014555000000","TLE_LINE1":"1 48358U 21038F   21299.33872955  .00001887  00000-0  14555-3 0  9994","FILE":"3184921","MEAN_MOTION_DDOT":"0.0000000000000","INCLINATION":"53.0527","REV_AT_EPOCH":"2656","ELEMENT_SET_NO":"999","APOAPSIS":"548.141"},{"TLE_LINE2":"2 48359  53.0562 323.1378 0001433  78.6040 281.5109 15.06393475 26574","OBJECT_NAME":"STARLINK-2628","CLASSIFICATION_TYPE":"U","EPOCH":"2021-10-26T09:38:00.574656","ECCENTRICITY":"0.00014330","MEAN_ELEMENT_THEORY":"SGP4","SITE":"AFETR","MEAN_ANOMALY":"281.5109","RA_OF_ASC_NODE":"323.1378","COUNTRY_CODE":"US","DECAY_DATE":null,"CENTER_NAME":"EARTH","OBJECT_TYPE":"PAYLOAD","TLE_LINE1":"1 48359U 21038G   21299.40139554  .00001715  00000-0  13405-3 0  9997","BSTAR":"0.00013405000000","SEMIMAJOR_AXIS":"6925.369","FILE":"3184921","REV_AT_EPOCH":"2657","MEAN_MOTION_DDOT":"0.0000000000000","INCLINATION":"53.0562","ELEMENT_SET_NO":"999","APOAPSIS":"548.226","RCS_SIZE":"LARGE","TIME_SYSTEM":"UTC","LAUNCH_DATE":"2021-05-04","REF_FRAME":"TEME","PERIOD":"95.593","MEAN_MOTION_DOT":"0.00001715","MEAN_MOTION":"15.06393475","EPHEMERIS_TYPE":"0","PERIAPSIS":"546.241","GP_ID":"188199813","OBJECT_ID":"2021-038G","ARG_OF_PERICENTER":"78.6040","NORAD_CAT_ID":"48359"},{"RCS_SIZE":"LARGE","TIME_SYSTEM":"UTC","LAUNCH_DATE":"2021-05-04","PERIOD":"95.592","REF_FRAME":"TEME","MEAN_MOTION":"15.06405935","MEAN_MOTION_DOT":"0.00000812","EPHEMERIS_TYPE":"0","PERIAPSIS":"546.363","GP_ID":"188204546","ARG_OF_PERICENTER":"62.1796","NORAD_CAT_ID":"48360","OBJECT_ID":"2021-038H","TLE_LINE2":"2 48360  53.0553 322.8499 0001202  62.1796 297.9314 15.06405935 27177","ECCENTRICITY":"0.00012020","CLASSIFICATION_TYPE":"U","EPOCH":"2021-10-26T11:08:14.688960","MEAN_ELEMENT_THEORY":"SGP4","SITE":"AFETR","OBJECT_NAME":"STARLINK-2622","RA_OF_ASC_NODE":"322.8499","MEAN_ANOMALY":"297.9314","CENTER_NAME":"EARTH","OBJECT_TYPE":"PAYLOAD","DECAY_DATE":null,"COUNTRY_CODE":"US","SEMIMAJOR_AXIS":"6925.330","BSTAR":"0.00007335900000","TLE_LINE1":"1 48360U 21038H   21299.46405890  .00000812  00000-0  73359-4 0  9996","FILE":"3185089","MEAN_MOTION_DDOT":"0.0000000000000","INCLINATION":"53.0553","REV_AT_EPOCH":"2717","ELEMENT_SET_NO":"999","APOAPSIS":"548.028"},{"EPOCH":"2021-10-26T09:27:22.809600","CLASSIFICATION_TYPE":"U","ECCENTRICITY":"0.00013170","MEAN_ELEMENT_THEORY":"SGP4","SITE":"AFETR","OBJECT_NAME":"STARLINK-2591","TLE_LINE2":"2 48361  53.0552 323.2507 0001317  82.7255 277.3883 15.06401782 26579","RA_OF_ASC_NODE":"323.2507","MEAN_ANOMALY":"277.3883","SEMIMAJOR_AXIS":"6925.343","BSTAR":"0.00014947000000","TLE_LINE1":"1 48361U 21038J   21299.39401400  .00001946  00000-0  14947-3 0  9998","CENTER_NAME":"EARTH","OBJECT_TYPE":"PAYLOAD","DECAY_DATE":null,"COUNTRY_CODE":"US","ELEMENT_SET_NO":"999","APOAPSIS":"548.120","MEAN_MOTION_DDOT":"0.0000000000000","FILE":"3184921","INCLINATION":"53.0552","REV_AT_EPOCH":"2657","RCS_SIZE":"LARGE","TIME_SYSTEM":"UTC","LAUNCH_DATE":"2021-05-04","MEAN_MOTION":"15.06401782","MEAN_MOTION_DOT":"0.00001946","PERIOD":"95.592","REF_FRAME":"TEME","EPHEMERIS_TYPE":"0","PERIAPSIS":"546.296","NORAD_CAT_ID":"48361","OBJECT_ID":"2021-038J","ARG_OF_PERICENTER":"82.7255","GP_ID":"188199311"},{"MEAN_ANOMALY":"290.8653","RA_OF_ASC_NODE":"322.9694","TLE_LINE2":"2 48362  53.0551 322.9694 0001013  69.2443 290.8653 15.04783069 27175","OBJECT_NAME":"STARLINK-2578","ECCENTRICITY":"0.00010130","CLASSIFICATION_TYPE":"U","EPOCH":"2021-10-26T09:55:26.832000","MEAN_ELEMENT_THEORY":"SGP4","SITE":"AFETR","MEAN_MOTION_DDOT":"0.0000000000000","FILE":"3185037","INCLINATION":"53.0551","REV_AT_EPOCH":"2717","ELEMENT_SET_NO":"999","APOAPSIS":"552.876","COUNTRY_CODE":"US","DECAY_DATE":null,"CENTER_NAME":"EARTH","OBJECT_TYPE":"PAYLOAD","TLE_LINE1":"1 48362U 21038K   21299.41350500  .00002361  00000-0  18489-3 0  9993","SEMIMAJOR_AXIS":"6930.309","BSTAR":"0.00018489000000","REF_FRAME":"TEME","PERIOD":"95.695","MEAN_MOTION_DOT":"0.00002361","MEAN_MOTION":"15.04783069","RCS_SIZE":"LARGE","TIME_SYSTEM":"UTC","LAUNCH_DATE":"2021-05-04","GP_ID":"188202634","NORAD_CAT_ID":"48362","ARG_OF_PERICENTER":"69.2443","OBJECT_ID":"2021-038K","EPHEMERIS_TYPE":"0","PERIAPSIS":"551.472"},{"MEAN_ANOMALY":"278.9071","RA_OF_ASC_NODE":"317.9740","OBJECT_NAME":"STARLINK-2626","SITE":"AFETR","MEAN_ELEMENT_THEORY":"SGP4","EPOCH":"2021-10-26T10:29:07.375488","CLASSIFICATION_TYPE":"U","ECCENTRICITY":"0.00011930","TLE_LINE2":"2 48363  53.0559 317.9740 0001193  81.2053 278.9071 15.06401690 26652","APOAPSIS":"548.035","ELEMENT_SET_NO":"999","FILE":"3184921","REV_AT_EPOCH":"2665","MEAN_MOTION_DDOT":"0.0000000000000","INCLINATION":"53.0559","TLE_LINE1":"1 48363U 21038L   21299.43689092  .00001098  00000-0  92558-4 0  9993","SEMIMAJOR_AXIS":"6925.343","BSTAR":"0.00009255800000","COUNTRY_CODE":"US","DECAY_DATE":null,"OBJECT_TYPE":"PAYLOAD","CENTER_NAME":"EARTH","MEAN_MOTION_DOT":"0.00001098","MEAN_MOTION":"15.06401690","REF_FRAME":"TEME","PERIOD":"95.592","LAUNCH_DATE":"2021-05-04","TIME_SYSTEM":"UTC","RCS_SIZE":"LARGE","NORAD_CAT_ID":"48363","OBJECT_ID":"2021-038L","ARG_OF_PERICENTER":"81.2053","GP_ID":"188200313","PERIAPSIS":"546.382","EPHEMERIS_TYPE":"0"},{"EPHEMERIS_TYPE":"0","PERIAPSIS":"546.342","OBJECT_ID":"2021-038M","ARG_OF_PERICENTER":"72.7280","NORAD_CAT_ID":"48364","GP_ID":"188200060","RCS_SIZE":"LARGE","TIME_SYSTEM":"UTC","LAUNCH_DATE":"2021-05-04","MEAN_MOTION_DOT":"0.00000218","MEAN_MOTION":"15.06406318","PERIOD":"95.592","REF_FRAME":"TEME","TLE_LINE1":"1 48364U 21038M   21299.36588646  .00000218  00000-0  33532-4 0  9999","SEMIMAJOR_AXIS":"6925.329","BSTAR":"0.00003353200000","COUNTRY_CODE":"US","DECAY_DATE":null,"CENTER_NAME":"EARTH","OBJECT_TYPE":"PAYLOAD","ELEMENT_SET_NO":"999","APOAPSIS":"548.046","FILE":"3184921","MEAN_MOTION_DDOT":"0.0000000000000","REV_AT_EPOCH":"2664","INCLINATION":"53.0564","OBJECT_NAME":"STARLINK-2611","EPOCH":"2021-10-26T08:46:52.590144","CLASSIFICATION_TYPE":"U","ECCENTRICITY":"0.00012300","SITE":"AFETR","MEAN_ELEMENT_THEORY":"SGP4","TLE_LINE2":"2 48364  53.0564 318.2940 0001230  72.7280 287.3843 15.06406318 26646","MEAN_ANOMALY":"287.3843","RA_OF_ASC_NODE":"318.2940"},{"FILE":"3185072","MEAN_MOTION_DDOT":"0.0000000000000","INCLINATION":"53.0567","REV_AT_EPOCH":"2723","ELEMENT_SET_NO":"999","APOAPSIS":"548.125","DECAY_DATE":null,"COUNTRY_CODE":"US","CENTER_NAME":"EARTH","OBJECT_TYPE":"PAYLOAD","TLE_LINE1":"1 48365U 21038N   21299.34473165  .00000360  00000-0  43064-4 0  9996","SEMIMAJOR_AXIS":"6925.337","BSTAR":"0.00004306400000","MEAN_ANOMALY":"271.6104","RA_OF_ASC_NODE":"318.3937","TLE_LINE2":"2 48365  53.0567 318.3937 0001333  88.5037 271.6104 15.06403804 27235","OBJECT_NAME":"STARLINK-2608","ECCENTRICITY":"0.00013330","CLASSIFICATION_TYPE":"U","EPOCH":"2021-10-26T08:16:24.814560","MEAN_ELEMENT_THEORY":"SGP4","SITE":"AFETR","GP_ID":"188202624","ARG_OF_PERICENTER":"88.5037","OBJECT_ID":"2021-038N","NORAD_CAT_ID":"48365","EPHEMERIS_TYPE":"0","PERIAPSIS":"546.279","PERIOD":"95.592","REF_FRAME":"TEME","MEAN_MOTION_DOT":"0.00000360","MEAN_MOTION":"15.06403804","TIME_SYSTEM":"UTC","RCS_SIZE":"LARGE","LAUNCH_DATE":"2021-05-04"},{"GP_ID":"188200063","ARG_OF_PERICENTER":"82.9443","OBJECT_ID":"2021-038P","NORAD_CAT_ID":"48366","EPHEMERIS_TYPE":"0","PERIAPSIS":"546.371","PERIOD":"95.592","REF_FRAME":"TEME","MEAN_MOTION_DOT":"0.00000165","MEAN_MOTION":"15.06406255","TIME_SYSTEM":"UTC","RCS_SIZE":"LARGE","LAUNCH_DATE":"2021-05-04","FILE":"3184921","REV_AT_EPOCH":"2670","MEAN_MOTION_DDOT":"0.0000000000000","INCLINATION":"53.0557","ELEMENT_SET_NO":"999","APOAPSIS":"548.018","DECAY_DATE":null,"COUNTRY_CODE":"US","CENTER_NAME":"EARTH","OBJECT_TYPE":"PAYLOAD","TLE_LINE1":"1 48366U 21038P   21299.33227828  .00000165  00000-0  29957-4 0  9997","SEMIMAJOR_AXIS":"6925.329","BSTAR":"0.00002995700000","MEAN_ANOMALY":"277.1682","RA_OF_ASC_NODE":"313.4463","TLE_LINE2":"2 48366  53.0557 313.4463 0001189  82.9443 277.1682 15.06406255 26709","OBJECT_NAME":"STARLINK-2631","CLASSIFICATION_TYPE":"U","ECCENTRICITY":"0.00011890","EPOCH":"2021-10-26T07:58:28.843392","MEAN_ELEMENT_THEORY":"SGP4","SITE":"AFETR"}];
